OBJECT_NAME,OBJECT_ID,EPOCH,MEAN_MOTION,ECCENTRICITY,INCLINATION,RA_OF_ASC_NODE,ARG_OF_PERICENTER,MEAN_ANOMALY,EPHEMERIS_TYPE,CLASSIFICATION_TYPE,NORAD_CAT_ID,ELEMENT_SET_NO,REV_AT_EPOCH,BSTAR,MEAN_MOTION_DOT,MEAN_MOTION_DDOT
QIANFAN-71,2025-016S,2025-10-02T03:55:31.624608,13.50970862,0.0015208,88.9739,110.4905,189.3714,170.7155,0,U,62801,999,3757,0.00015022,1.09e-06,0.0
QIANFAN-72,2025-016T,2025-10-01T06:58:51.347712,13.49486897,0.001844,88.973,110.6012,200.3911,159.6505,0,U,62802,999,3744,0.00011481,8.4e-07,0.0
TJS-14,2025-017A,2025-10-02T03:28:57.498816,1.00268289,0.0003036,1.4089,286.2843,339.6576,175.8646,0,U,62804,999,268,0.0,1.14e-06,0.0
STARLINK-32883,2025-018A,2025-10-01T20:53:48.492960,15.30218934,0.0001508,53.1622,327.2194,108.9517,251.1647,0,U,62806,999,3977,0.0050585,0.00152659,0.0
STARLINK-32886,2025-018B,2025-10-01T20:52:17.314176,15.30188526,0.0001716,53.1618,327.2093,79.2586,280.8608,0,U,62807,999,3886,0.00188,0.0005572,0.0
STARLINK-32848,2025-018C,2025-10-01T20:59:51.137952,15.30211906,0.0001664,53.1619,327.2412,75.1873,284.9312,0,U,62808,999,3885,0.0022033,0.00065497,0.0
STARLINK-32787,2025-018D,2025-10-01T20:49:12.972000,15.30222999,0.0001384,53.1607,327.1972,82.1593,277.9565,0,U,62809,999,3885,0.0029168,0.00087106,0.0
STARLINK-32851,2025-018E,2025-10-01T20:56:48.918624,15.30216034,0.0001722,53.1616,327.2309,87.6675,272.4523,0,U,62810,999,3885,0.0022425,0.00066688,0.0
STARLINK-32847,2025-018F,2025-10-02T02:47:11.905728,15.30229124,0.0003096,53.1591,325.9019,84.3997,275.7357,0,U,62811,999,3889,0.0025586,0.00076274,0.0
STARLINK-32837,2025-018G,2025-10-01T20:44:39.522048,15.30202963,0.0001585,53.1605,327.1882,88.4385,271.6797,0,U,62812,999,3886,0.0017446,0.00051677,0.0
STARLINK-32855,2025-018H,2025-10-01T20:26:24.135936,15.30243249,0.0001451,53.1594,327.0955,68.4528,291.6627,0,U,62813,999,3885,0.0018535,0.00055017,0.0
STARLINK-32843,2025-018J,2025-10-02T03:35:49.579296,15.30240715,0.0001456,53.1596,326.1135,71.1429,288.9729,0,U,62814,999,3889,0.0031361,0.0009382,0.0
STARLINK-32845,2025-018K,2025-10-02T02:51:45.341856,15.30235984,0.0003334,53.1595,325.9219,80.5881,279.5497,0,U,62815,999,3889,0.0022956,0.00068338,0.0
STARLINK-32854,2025-018L,2025-10-01T21:08:58.325568,15.30212507,0.0001479,53.1609,327.2822,84.8721,275.2449,0,U,62816,999,3884,0.0024436,0.00072752,0.0
STARLINK-32824,2025-018M,2025-10-01T20:38:34.632384,15.30205595,0.0001648,53.1597,327.1446,97.0164,263.1024,0,U,62817,999,3980,0.0020609,0.00061194,0.0
STARLINK-32853,2025-018N,2025-10-02T04:19:43.465152,15.30204215,0.0001383,53.1594,325.5894,96.1068,264.009,0,U,62818,999,3891,0.0025484,0.00075901,0.0
STARLINK-32856,2025-018P,2025-10-01T21:02:53.487744,15.3021302,0.0001451,53.1618,327.2555,89.5702,270.5465,0,U,62819,999,3886,0.0020866,0.00061981,0.0
STARLINK-32844,2025-018Q,2025-10-01T21:07:27.145920,15.30207878,0.0001533,53.161,327.2708,87.6538,272.4638,0,U,62820,999,3885,0.0020844,0.00061905,0.0
STARLINK-32782,2025-018R,2025-10-01T20:47:42.000576,15.30201372,0.0001727,53.1613,327.1862,86.0958,274.024,0,U,62821,999,3886,0.0022263,0.0006617,0.0
STARLINK-32842,2025-018S,2025-10-01T20:58:20.099136,15.30211174,0.0001522,53.162,327.2341,86.2202,273.8973,0,U,62822,999,3886,0.0021718,0.00064547,0.0
STARLINK-32823,2025-018T,2025-10-02T02:50:13.840800,15.30173015,0.0002714,53.1589,325.9128,79.4156,280.715,0,U,62823,999,3890,0.0025858,0.00076959,0.0
STARLINK-32852,2025-018U,2025-10-02T03:32:47.079168,15.30235109,0.0002655,53.1603,326.0996,93.3912,266.7392,0,U,62824,999,3890,0.0019655,0.00058377,0.0
STARLINK-32825,2025-018V,2025-10-02T03:54:38.881728,15.30200722,0.0001203,53.1581,323.3508,82.6403,277.4734,0,U,62825,999,3893,0.002155,0.00064017,0.0
STARLINK-32704,2025-018W,2025-10-01T21:04:24.983616,15.30196296,0.0001611,53.1622,327.2795,74.2784,285.8395,0,U,62826,999,3885,0.0010248,0.00030113,0.0
STARLINK-32838,2025-018X,2025-10-02T01:10:49.120032,15.30222627,0.0001512,53.1585,288.1837,80.4918,279.6254,0,U,62827,999,3941,0.0020717,0.00061551,0.0
STARLINK-32727,2025-018Y,2025-10-01T21:06:31.618368,15.30183207,0.0001871,53.1602,324.4267,90.3622,269.7593,0,U,62828,999,3984,0.0024164,0.00071866,0.0
STARLINK-11548 [DTC],2025-019A,2025-10-02T01:08:18.576672,15.70885357,0.0001015,42.998,181.9366,232.3916,127.6859,0,U,62829,999,3893,0.001652,0.00217588,0.0
STARLINK-11480 [DTC],2025-019B,2025-10-01T05:48:35.723232,15.70915092,0.0001413,42.9993,187.0938,272.1986,87.872,0,U,62830,999,3880,0.0022052,0.00293655,0.0
STARLINK-11559 [DTC],2025-019C,2025-10-02T02:24:46.092672,15.70964311,0.0001907,43.0002,182.3672,300.5727,59.4953,0,U,62831,999,3893,0.0032894,0.00447483,0.0
STARLINK-11549 [DTC],2025-019D,2025-10-02T03:33:22.956768,15.70955354,0.0004491,43.0039,181.8557,276.4856,83.5501,0,U,62832,999,3894,0.0027805,0.00374758,0.0
