62801,QIANFAN-71,2025,106.59,-1.0,+,88.97,Active,0,LEO,PRC,China,Unknown,Unknown,Unknown,1 62801U 25016S   25275.16356047  .00000109  00000+0  15022-3 0  9996,2 62801  88.9739 110.4905 0015208 189.3714 170.7155 13.50970862 37571,13.50970862,0.0015208,LEO
62802,QIANFAN-72,2025,106.71,-1.0,+,88.97,Active,0,LEO,PRC,China,Unknown,Unknown,Unknown,1 62802U 25016T   25274.29087208  .00000084  00000+0  11481-3 0  9997,2 62802  88.9730 110.6012 0018440 200.3911 159.6505 13.49486897 37447,13.49486897,0.001844,LEO
62804,TJS-14,2025,1436.04,-1.0,+,1.41,Active,0,GSO,PRC,China,Unknown,Unknown,Unknown,1 62804U 25017A   25275.14510994  .00000114  00000+0  00000+0 0  9993,2 62804   1.4089 286.2843 0003036 339.6576 175.8646  1.00268289  2687,1.00268289,0.0003036,GSO
62806,STARLINK-32883,2025,94.11,-1.0,+,53.16,Active,0,LEO,USA,USA,Unknown,Unknown,Unknown,1 62806U 25018A   25274.87070015  .00152659  00000+0  50585-2 0  9998,2 62806  53.1622 327.2194 0001508 108.9517 251.1647 15.30218934 39774,15.30218934,0.0001508,LEO
62807,STARLINK-32886,2025,94.11,-1.0,+,53.16,Active,0,LEO,USA,USA,Unknown,Unknown,Unknown,1 62807U 25018B   25274.86964484  .00055720  00000+0  18800-2 0  9995,2 62807  53.1618 327.2093 0001716  79.2586 280.8608 15.30188526 38863,15.30188526,0.0001716,LEO
62808,STARLINK-32848,2025,94.1,-1.0,+,53.16,Active,0,LEO,USA,USA,Unknown,Unknown,Unknown,1 62808U 25018C   25274.87489743  .00065497  00000+0  22033-2 0  9992,2 62808  53.1619 327.2412 0001664  75.1873 284.9312 15.30211906 38851,15.30211906,0.0001664,LEO
62809,STARLINK-32787,2025,94.1,-1.0,+,53.16,Active,0,LEO,USA,USA,Unknown,Unknown,Unknown,1 62809U 25018D   25274.86751125  .00087106  00000+0  29168-2 0  9995,2 62809  53.1607 327.1972 0001384  82.1593 277.9565 15.30222999 38851,15.30222999,0.0001384,LEO
62810,STARLINK-32851,2025,94.11,-1.0,+,53.16,Active,0,LEO,USA,USA,Unknown,Unknown,Unknown,1 62810U 25018E   25274.87278841  .00066688  00000+0  22425-2 0  9998,2 62810  53.1616 327.2309 0001722  87.6675 272.4523 15.30216034 38852,15.30216034,0.0001722,LEO
62811,STARLINK-32847,2025,94.11,-1.0,+,53.16,Active,0,LEO,USA,USA,Unknown,Unknown,Unknown,1 62811U 25018F   25275.11611002  .00076274  00000+0  25586-2 0  9990,2 62811  53.1591 325.9019 0003096  84.3997 275.7357 15.30229124 38894,15.30229124,0.0003096,LEO
62812,STARLINK-32837,2025,94.1,-1.0,+,53.16,Active,0,LEO,USA,USA,Unknown,Unknown,Unknown,1 62812U 25018G   25274.86434632  .00051677  00000+0  17446-2 0  9990,2 62812  53.1605 327.1882 0001585  88.4385 271.6797 15.30202963 38862,15.30202963,0.0001585,LEO
62813,STARLINK-32855,2025,94.11,-1.0,+,53.16,Active,0,LEO,USA,USA,Unknown,Unknown,Unknown,1 62813U 25018H   25274.85166824  .00055017  00000+0  18535-2 0  9997,2 62813  53.1594 327.0955 0001451  68.4528 291.6627 15.30243249 38854,15.30243249,0.0001451,LEO
62814,STARLINK-32843,2025,94.11,-1.0,+,53.16,Active,0,LEO,USA,USA,Unknown,Unknown,Unknown,1 62814U 25018J   25275.14987939  .00093820  00000+0  31361-2 0  9995,2 62814  53.1596 326.1135 0001456  71.1429 288.9729 15.30240715 38894,15.30240715,0.0001456,LEO
62815,STARLINK-32845,2025,94.1,-1.0,+,53.16,Active,0,LEO,USA,USA,Unknown,Unknown,Unknown,1 62815U 25018K   25275.11927479  .00068338  00000+0  22956-2 0  9992,2 62815  53.1595 325.9219 0003334  80.5881 279.5497 15.30235984 38897,15.30235984,0.0003334,LEO
62816,STARLINK-32854,2025,94.11,-1.0,+,53.16,Active,0,LEO,USA,USA,Unknown,Unknown,Unknown,1 62816U 25018L   25274.88123062  .00072752  00000+0  24436-2 0  9992,2 62816  53.1609 327.2822 0001479  84.8721 275.2449 15.30212507 38848,15.30212507,0.0001479,LEO
62817,STARLINK-32824,2025,94.11,-1.0,+,53.16,Active,0,LEO,USA,USA,Unknown,Unknown,Unknown,1 62817U 25018M   25274.86012306  .00061194  00000+0  20609-2 0  9995,2 62817  53.1597 327.1446 0001648  97.0164 263.1024 15.30205595 39802,15.30205595,0.0001648,LEO
62818,STARLINK-32853,2025,94.1,-1.0,+,53.16,Active,0,LEO,USA,USA,Unknown,Unknown,Unknown,1 62818U 25018N   25275.18036418  .00075901  00000+0  25484-2 0  9999,2 62818  53.1594 325.5894 0001383  96.1068 264.0090 15.30204215 38910,15.30204215,0.0001383,LEO
62819,STARLINK-32856,2025,94.11,-1.0,+,53.16,Active,0,LEO,USA,USA,Unknown,Unknown,Unknown,1 62819U 25018P   25274.87700796  .00061981  00000+0  20866-2 0  9994,2 62819  53.1618 327.2555 0001451  89.5702 270.5465 15.30213020 38864,15.3021302,0.0001451,LEO
62820,STARLINK-32844,2025,94.1,-1.0,+,53.16,Active,0,LEO,USA,USA,Unknown,Unknown,Unknown,1 62820U 25018Q   25274.88017530  .00061905  00000+0  20844-2 0  9996,2 62820  53.1610 327.2708 0001533  87.6538 272.4638 15.30207878 38851,15.30207878,0.0001533,LEO
62821,STARLINK-32782,2025,94.11,-1.0,+,53.16,Active,0,LEO,USA,USA,Unknown,Unknown,Unknown,1 62821U 25018R   25274.86645834  .00066170  00000+0  22263-2 0  9995,2 62821  53.1613 327.1862 0001727  86.0958 274.0240 15.30201372 38860,15.30201372,0.0001727,LEO
62822,STARLINK-32842,2025,94.11,-1.0,+,53.16,Active,0,LEO,USA,USA,Unknown,Unknown,Unknown,1 62822U 25018S   25274.87384374  .00064547  00000+0  21718-2 0  9996,2 62822  53.1620 327.2341 0001522  86.2202 273.8973 15.30211174 38860,15.30211174,0.0001522,LEO
62823,STARLINK-32823,2025,94.1,-1.0,+,53.16,Active,0,LEO,USA,USA,Unknown,Unknown,Unknown,1 62823U 25018T   25275.11821575  .00076959  00000+0  25858-2 0  9993,2 62823  53.1589 325.9128 0002714  79.4156 280.7150 15.30173015 38909,15.30173015,0.0002714,LEO
62824,STARLINK-32852,2025,94.11,-1.0,+,53.16,Active,0,LEO,USA,USA,Unknown,Unknown,Unknown,1 62824U 25018U   25275.14776712  .00058377  00000+0  19655-2 0  9991,2 62824  53.1603 326.0996 0002655  93.3912 266.7392 15.30235109 38906,15.30235109,0.0002655,LEO
62825,STARLINK-32825,2025,94.11,-1.0,+,53.16,Active,0,LEO,USA,USA,Unknown,Unknown,Unknown,1 62825U 25018V   25275.16295002  .00064017  00000+0  21550-2 0  9997,2 62825  53.1581 323.3508 0001203  82.6403 277.4734 15.30200722 38930,15.30200722,0.0001203,LEO
62826,STARLINK-32704,2025,94.11,-1.0,+,53.16,Active,0,LEO,USA,USA,Unknown,Unknown,Unknown,1 62826U 25018W   25274.87806694  .00030113  00000+0  10248-2 0  9992,2 62826  53.1622 327.2795 0001611  74.2784 285.8395 15.30196296 38857,15.30196296,0.0001611,LEO
62827,STARLINK-32838,2025,94.11,-1.0,+,53.16,Active,0,LEO,USA,USA,Unknown,Unknown,Unknown,1 62827U 25018X   25275.04917963  .00061551  00000+0  20717-2 0  9997,2 62827  53.1585 288.1837 0001512  80.4918 279.6254 15.30222627 39412,15.30222627,0.0001512,LEO
62828,STARLINK-32727,2025,94.11,-1.0,+,53.16,Active,0,LEO,USA,USA,Unknown,Unknown,Unknown,1 62828U 25018Y   25274.87953262  .00071866  00000+0  24164-2 0  9990,2 62828  53.1602 324.4267 0001871  90.3622 269.7593 15.30183207 39847,15.30183207,0.0001871,LEO
62829,STARLINK-11548 [DTC],2025,91.65,-1.0,+,43.0,Active,0,LEO,USA,USA,Unknown,Unknown,Unknown,1 62829U 25019A   25275.04743723  .00217588  00000+0  16520-2 0  9991,2 62829  42.9980 181.9366 0001015 232.3916 127.6859 15.70885357 38938,15.70885357,0.0001015,LEO
62830,STARLINK-11480 [DTC],2025,91.67,-1.0,+,43.0,Active,0,LEO,USA,USA,Unknown,Unknown,Unknown,1 62830U 25019B   25274.24208013  .00293655  00000+0  22052-2 0  9998,2 62830  42.9993 187.0938 0001413 272.1986  87.8720 15.70915092 38807,15.70915092,0.0001413,LEO
62831,STARLINK-11559 [DTC],2025,91.66,-1.0,+,43.0,Active,0,LEO,USA,USA,Unknown,Unknown,Unknown,1 62831U 25019C   25275.10053348  .00447483  00000+0  32894-2 0  9999,2 62831  43.0002 182.3672 0001907 300.5727  59.4953 15.70964311 38936,15.70964311,0.0001907,LEO
62832,STARLINK-11549 [DTC],2025,91.67,-1.0,+,43.0,Active,0,LEO,USA,USA,Unknown,Unknown,Unknown,1 62832U 25019D   25275.14818237  .00374758  00000+0  27805-2 0  9990,2 62832  43.0039 181.8557 0004491 276.4856  83.5501 15.70955354 38943,15.70955354,0.0004491,LEO
